NORAD_CAT_ID,OBJECT_NAME,OBJECT_TYPE,EPOCH,MEAN_MOTION,ECCENTRICITY,INCLINATION,RA_OF_ASC_NODE,ARG_OF_PERICENTER,MEAN_ANOMALY,BSTAR,MEAN_MOTION_DOT,MEAN_MOTION_DDOT,TLE_LINE0,TLE_LINE1,TLE_LINE2,SEMIMAJOR_AXIS,PERIOD,APOGEE,PERIGEE,DECAYED
52708.0,STARLINK-3962,PAYLOAD,2024-08-04 17:15:07,15.08840081,0.0001289,53.2148,226.6804,90.8543,269.2597,5.7866e-05,6.33e-06,0.0,0 STARLINK-3962,1 52708U 22053BE  24217.71883182  .00000633  00000-0  57866-4 0  9996,2 52708  53.2148 226.6804 0001289  90.8543 269.2597 15.08840081123667,6917.88,95.438,540.637,538.853,0.0
52708.0,STARLINK-3962,PAYLOAD,2024-08-05 17:05:54,15.08833909,0.0001397,53.2156,222.2211,91.0949,269.0203,1.3131e-06,-2.67e-06,0.0,0 STARLINK-3962,1 52708U 22053BE  24218.71243850 -.00000267  00000-0  13131-5 0  9991,2 52708  53.2156 222.2211 0001397  91.0949 269.0203 15.08833909123183,6917.899,95.438,540.73,538.798,0.0
52708.0,STARLINK-3962,PAYLOAD,2024-08-06 10:35:09,15.08833914,0.0001424,53.2158,218.95,91.5924,268.5232,-1.2438e-05,-4.86e-06,0.0,0 STARLINK-3962,1 52708U 22053BE  24219.44108187 -.00000486  00000-0 -12438-4 0  9997,2 52708  53.2158 218.9500 0001424  91.5924 268.5232 15.08833914123921,6917.899,95.438,540.749,538.779,0.0
52708.0,STARLINK-3962,PAYLOAD,2024-08-06 16:56:41,15.08835327,0.0001425,53.2158,217.7606,91.9521,268.1634,-7.6983e-06,-4.1e-06,0.0,0 STARLINK-3962,1 52708U 22053BE  24219.70604152 -.00000410  00000-0 -76983-5 0  9992,2 52708  53.2158 217.7606 0001425  91.9521 268.1634 15.08835327123969,6917.895,95.438,540.745,538.774,0.0
52708.0,STARLINK-3962,PAYLOAD,2024-08-07 05:39:46,15.0883939,0.0001406,53.2156,215.3814,90.8598,269.2555,1.4194e-05,-6.2e-07,0.0,0 STARLINK-3962,1 52708U 22053BE  24220.23595966 -.00000062  00000-0  14194-4 0  9991,2 52708  53.2156 215.3814 0001406  90.8598 269.2555 15.08839390123411,6917.882,95.438,540.72,538.775,0.0
52708.0,STARLINK-3962,PAYLOAD,2024-08-08 08:41:19,15.08847884,0.0001381,53.2157,210.3257,93.0348,267.0802,0.00015128,2.121e-05,0.0,0 STARLINK-3962,1 52708U 22053BE  24221.36203109  .00002121  00000-0  15128-3 0  9995,2 52708  53.2157 210.3257 0001381  93.0348 267.0802 15.08847884124215,6917.856,95.437,540.677,538.766,0.0
52708.0,STARLINK-3962,PAYLOAD,2024-08-08 22:59:48,15.08837635,0.0001514,53.2162,207.647,97.3895,262.7269,1.7211e-05,-1.4e-07,0.0,0 STARLINK-3962,1 52708U 22053BE  24221.95820314 -.00000014  00000-0  17211-4 0  9999,2 52708  53.2162 207.6470 0001514  97.3895 262.7269 15.08837635124301,6917.888,95.438,540.8,538.705,0.0
52708.0,STARLINK-3962,PAYLOAD,2024-08-09 05:21:20,15.08840379,0.0001543,53.2156,206.4593,94.1886,265.9283,3.6752e-05,2.97e-06,0.0,0 STARLINK-3962,1 52708U 22053BE  24222.22315954  .00000297  00000-0  36752-4 0  9992,2 52708  53.2156 206.4593 0001543  94.1886 265.9283 15.08840379123718,6917.879,95.438,540.812,538.677,0.0
52708.0,STARLINK-3962,PAYLOAD,2024-08-09 08:32:06,15.08846109,0.0001594,53.2165,205.8639,91.4999,268.6176,6.0812e-05,6.8e-06,0.0,0 STARLINK-3962,1 52708U 22053BE  24222.35563577  .00000680  00000-0  60812-4 0  9992,2 52708  53.2165 205.8639 0001594  91.4999 268.6176 15.08846109124363,6917.862,95.437,540.829,538.624,0.0
52708.0,STARLINK-3962,PAYLOAD,2024-08-09 16:29:02,15.0884117,0.0001487,53.2159,204.3763,94.1498,265.9664,1.0147e-05,-1.26e-06,0.0,0 STARLINK-3962,1 52708U 22053BE  24222.68683936 -.00000126  00000-0  10147-4 0  9992,2 52708  53.2159 204.3763 0001487  94.1498 265.9664 15.08841170124414,6917.877,95.437,540.771,538.713,0.0
52708.0,STARLINK-3962,PAYLOAD,2024-08-10 05:12:07,15.08846279,0.0001527,53.2162,201.9967,94.2568,265.8599,-1.4121e-05,-5.13e-06,0.0,0 STARLINK-3962,1 52708U 22053BE  24223.21675632 -.00000513  00000-0 -14121-4 0  9993,2 52708  53.2162 201.9967 0001527  94.2568 265.8599 15.08846279124490,6917.861,95.437,540.783,538.67,0.0
52708.0,STARLINK-3962,PAYLOAD,2024-08-11 01:52:08,15.08842004,0.0001504,53.216,198.1313,97.8928,262.2235,1.3678e-05,-7e-07,0.0,0 STARLINK-3962,1 52708U 22053BE  24224.07787770 -.00000070  00000-0  13678-4 0  9998,2 52708  53.2160 198.1313 0001504  97.8928 262.2235 15.08842004123998,6917.874,95.437,540.78,538.699,0.0
52708.0,STARLINK-3962,PAYLOAD,2024-08-11 08:13:40,15.08848666,0.0001469,53.2157,196.9408,93.9955,266.1205,6.4156e-05,7.33e-06,0.0,0 STARLINK-3962,1 52708U 22053BE  24224.34283228  .00000733  00000-0  64156-4 0  9999,2 52708  53.2157 196.9408 0001469  93.9955 266.1205 15.08848666124038,6917.854,95.437,540.735,538.703,0.0
52708.0,STARLINK-3962,PAYLOAD,2024-08-12 06:29:03,15.08856604,0.0001461,53.2169,192.7803,109.1727,250.9424,0.000175,2.499e-05,0.0,0 STARLINK-3962,1 52708U 22053BE  24225.27018361  .00002499  00000-0  17500-3 0  9997,2 52708  53.2169 192.7803 0001461 109.1727 250.9424 15.08856604124803,6917.83,95.437,540.705,538.684,0.0
52708.0,STARLINK-3962,PAYLOAD,2024-08-12 22:22:55,15.08848792,0.0001461,53.2165,189.8018,88.7635,271.3524,7.1384e-05,8.49e-06,0.0,0 STARLINK-3962,1 52708U 22053BE  24225.93258999  .00000849  00000-0  71384-4 0  9991,2 52708  53.2165 189.8018 0001461  88.7635 271.3524 15.08848792124902,6917.854,95.437,540.729,538.708,0.0
52708.0,STARLINK-3962,PAYLOAD,2024-08-13 04:44:28,15.08845755,0.0001333,53.2166,188.6211,100.3201,259.7942,-1.2025e-05,-4.79e-06,0.0,0 STARLINK-3962,1 52708U 22053BE  24226.19755317 -.00000479  00000-0 -12025-4 0  9994,2 52708  53.2166 188.6211 0001333 100.3201 259.7942 15.08845755124318,6917.863,95.437,540.65,538.806,0.0
52708.0,STARLINK-3962,PAYLOAD,2024-08-13 20:38:21,15.08823764,0.000123,53.2168,185.6455,87.5116,272.6017,-2.727e-05,-7.22e-06,0.0,0 STARLINK-3962,1 52708U 22053BE  24226.85996952 -.00000722  00000-0 -27270-4 0  9998,2 52708  53.2168 185.6455 0001230  87.5116 272.6017 15.08823764124418,6917.93,95.439,540.646,538.944,0.0
52708.0,STARLINK-3962,PAYLOAD,2024-08-14 06:10:41,15.08825957,0.0001559,53.2177,183.8614,91.492,268.6251,-0.0002192,-3.774e-05,0.0,0 STARLINK-3962,1 52708U 22053BE  24227.25741986 -.00003774  00000-0 -21920-3 0  9993,2 52708  53.2177 183.8614 0001559  91.4920 268.6251 15.08825957125104,6917.923,95.438,540.867,538.71,0.0
52708.0,STARLINK-3962,PAYLOAD,2024-08-15 04:26:04,15.08834586,0.0001737,53.2171,179.6978,63.9035,296.2135,4.8377e-05,4.82e-06,0.0,0 STARLINK-3962,1 52708U 22053BE  24228.18477212  .00000482  00000-0  48377-4 0  9991,2 52708  53.2171 179.6978 0001737  63.9035 296.2135 15.08834586124614,6917.897,95.438,540.964,538.56,0.0
52708.0,STARLINK-3962,PAYLOAD,2024-08-15 13:58:23,15.0881535,0.0001494,53.2159,177.9177,98.4033,261.7128,0.00042248,6.438e-05,0.0,0 STARLINK-3962,1 52708U 22053BE  24228.58221554  .00006438  00000-0  42248-3 0  9998,2 52708  53.2159 177.9177 0001494  98.4033 261.7128 15.08815350125307,6917.956,95.439,540.854,538.787,0.0
52708.0,STARLINK-3962,PAYLOAD,2024-08-16 04:16:50,15.08836645,0.0001486,53.2158,175.2379,80.7387,279.3774,0.00025808,3.821e-05,0.0,0 STARLINK-3962,1 52708U 22053BE  24229.17836782  .00003821  00000-0  25808-3 0  9995,2 52708  53.2158 175.2379 0001486  80.7387 279.3774 15.08836645124769,6917.891,95.438,540.784,538.728,0.0
52708.0,STARLINK-3962,PAYLOAD,2024-08-17 02:32:15,15.08834777,0.0001363,53.2165,171.0738,75.3341,284.7802,0.00011688,1.572e-05,0.0,0 STARLINK-3962,1 52708U 22053BE  24230.10573301  .00001572  00000-0  11688-3 0  9997,2 52708  53.2165 171.0738 0001363  75.3341 284.7802 15.08834777124906,6917.896,95.438,540.704,538.818,0.0
52708.0,STARLINK-3962,PAYLOAD,2024-08-17 05:43:01,15.0884967,0.0001544,53.2174,170.4758,114.4864,245.6289,-8.1629e-06,-4.18e-06,0.0,0 STARLINK-3962,1 52708U 22053BE  24230.23820623 -.00000418  00000-0 -81629-5 0  9997,2 52708  53.2174 170.4758 0001544 114.4864 245.6289 15.08849670124922,6917.851,95.437,540.784,538.648,0.0
52708.0,STARLINK-3962,PAYLOAD,2024-08-18 02:23:02,15.08800818,0.0001682,53.2172,166.6062,118.958,241.1581,0.00051717,7.944e-05,0.0,0 STARLINK-3962,1 52708U 22053BE  24231.09933411  .00007944  00000-0  51717-3 0  9994,2 52708  53.2172 166.6062 0001682 118.9580 241.1581 15.08800818125054,6918.0,95.44,541.029,538.702,0.0
52708.0,STARLINK-3962,PAYLOAD,2024-08-18 19:52:16,15.08838239,0.0001384,53.2167,163.3422,99.8606,260.2543,-3.4732e-05,-8.41e-06,0.0,0 STARLINK-3962,1 52708U 22053BE  24231.82797364 -.00000841  00000-0 -34732-4 0  9990,2 52708  53.2167 163.3422 0001384  99.8606 260.2543 15.08838239125167,6917.886,95.438,540.708,538.793,0.0
52708.0,STARLINK-3962,PAYLOAD,2024-08-19 00:38:26,15.0883875,0.000146,53.2171,162.4508,112.7086,247.406,-3.3548e-05,-8.22e-06,0.0,0 STARLINK-3962,1 52708U 22053BE  24232.02669288 -.00000822  00000-0 -33548-4 0  9999,2 52708  53.2171 162.4508 0001460 112.7086 247.4060 15.08838750125821,6917.884,95.438,540.759,538.739,0.0
52708.0,STARLINK-3962,PAYLOAD,2024-08-20 02:04:36,15.08838415,0.0001368,53.2167,157.6968,97.6483,262.4665,2.9926e-05,1.88e-06,0.0,0 STARLINK-3962,1 52708U 22053BE  24233.08653472  .00000188  00000-0  29926-4 0  9992,2 52708  53.2167 157.6968 0001368  97.6483 262.4665 15.08838415125355,6917.885,95.438,540.697,538.804,0.0
52708.0,STARLINK-3962,PAYLOAD,2024-08-20 05:15:22,15.08844154,0.0001273,53.2151,157.0971,79.6243,280.4892,4.6741e-05,4.56e-06,0.0,0 STARLINK-3962,1 52708U 22053BE  24233.21901066  .00000456  00000-0  46741-4 0  9994,2 52708  53.2151 157.0971 0001273  79.6243 280.4892 15.08844154126007,6917.868,95.437,540.613,538.852,0.0
52708.0,STARLINK-3962,PAYLOAD,2024-08-21 00:20:00,15.08839907,0.0001262,53.215,153.5281,67.9395,292.1731,5.9672e-05,6.62e-06,0.0,0 STARLINK-3962,1 52708U 22053BE  24234.01389366  .00000662  00000-0  59672-4 0  9992,2 52708  53.2150 153.5281 0001262  67.9395 292.1731 15.08839907126122,6917.881,95.438,540.619,538.873,0.0
